// flashcards/tafalternates.js
export const tafalternates = [
	{ front : `Do you require an alternate if your ETA is on the 8th at 1300?<p style="font-size: 24px; text-align: left; justify-content: center;  font-weight: bold">KSYR 081120Z 0812/0912 33010KT P6SM -SHSN OVC015<br>FM081400 32008G15KT P6SM OVC015<br>FM081700 31008G15KT P6SM OVC025<br>FM09000 31007G12KT P6SM OVC015</p>`, back: `YES` },
	{ front : `Do you require an alternate if your ETA is on the 9th at 0624?<p style="font-size: 24px; text-align: left; justify-content: center;  font-weight: bold">KSYR 081120Z 0812/0912 33010KT P6SM -SHSN OVC015<br>FM081400 32008G15KT P6SM OVC015<br>FM081700 31008G15KT P6SM OVC025<br>FM09000 31007G12KT P6SM OVC015</p>`, back: `YES` },
	{ front : `Do you require an alternate if your ETA is on the 8th at 1315?<p style="font-size: 24px; text-align: left; justify-content: center;  font-weight: bold">KSYR 081120Z 0812/0912 33010KT P6SM -SHSN OVC015<br>FM081400 32008G15KT P6SM OVC015<br>FM081700 31008G15KT P6SM OVC025<br>FM09000 31007G12KT P6SM OVC015</p>`, back: `YES` },
	{ front : `Do you require an alternate if your ETA is on the 8th at 2209?<p style="font-size: 24px; text-align: left; justify-content: center;  font-weight: bold">KSYR 081120Z 0812/0912 33010KT P6SM -SHSN OVC015<br>FM081400 32008G15KT P6SM OVC015<br>FM081700 31008G15KT P6SM OVC025<br>FM09000 31007G12KT P6SM OVC015</p>`, back: `NO` },
	{ front : `Do you require an alternate if your ETA is on the 9th at 0001?<p style="font-size: 24px; text-align: left; justify-content: center;  font-weight: bold">KSYR 081120Z 0812/0912 33010KT P6SM -SHSN OVC015<br>FM081400 32008G15KT P6SM OVC015<br>FM081700 31008G15KT P6SM OVC025<br>FM09000 31007G12KT P6SM OVC015</p>`, back: `YES` },
	
	{ front : `Do you require an alternate if your ETA is on the 20th at 1300?<p style="font-size: 24px; text-align: left; justify-content: center;  font-weight: bold">KGPI 201219Z 2012/2112 00000KT 1/2SM FZFG VV006<br>TEMPO 2012/2014 1/4SM FZFG VV001<br>FM201400 00000KT 1SM BR SCT006<br>FM201600 VRB04KT P6SM VCFG SCT150<br>FM201900 23013G22KT P6SM BKN150<br>FM210100 27008KT P6SM OVC100</p>`, back: `YES` },
	{ front : `Do you require an alternate if your ETA is on the 21st at 1059?<p style="font-size: 24px; text-align: left; justify-content: center;  font-weight: bold">KGPI 201219Z 2012/2112 00000KT 1/2SM FZFG VV006<br>TEMPO 2012/2014 1/4SM FZFG VV001<br>FM201400 00000KT 1SM BR SCT006<br>FM201600 VRB04KT P6SM VCFG SCT150<br>FM201900 23013G22KT P6SM BKN150<br>FM210100 27008KT P6SM OVC100</p>`, back: `NO` },
	{ front : `Do you require an alternate if your ETA is on the 20th at 1700?<p style="font-size: 24px; text-align: left; justify-content: center;  font-weight: bold">KGPI 201219Z 2012/2112 00000KT 1/2SM FZFG VV006<br>TEMPO 2012/2014 1/4SM FZFG VV001<br>FM201400 00000KT 1SM BR SCT006<br>FM201600 VRB04KT P6SM VCFG SCT150<br>FM201900 23013G22KT P6SM BKN150<br>FM210100 27008KT P6SM OVC100</p>`, back: `NO` },
	{ front : `Do you require an alternate if your ETA is on the 20th at 1657?<p style="font-size: 24px; text-align: left; justify-content: center;  font-weight: bold">KGPI 201219Z 2012/2112 00000KT 1/2SM FZFG VV006<br>TEMPO 2012/2014 1/4SM FZFG VV001<br>FM201400 00000KT 1SM BR SCT006<br>FM201600 VRB04KT P6SM VCFG SCT150<br>FM201900 23013G22KT P6SM BKN150<br>FM210100 27008KT P6SM OVC100</p>`, back: `YES` },
	{ front : `Do you require an alternate if your ETA is on the 20th at 2335?<p style="font-size: 24px; text-align: left; justify-content: center;  font-weight: bold">KGPI 201219Z 2012/2112 00000KT 1/2SM FZFG VV006<br>TEMPO 2012/2014 1/4SM FZFG VV001<br>FM201400 00000KT 1SM BR SCT006<br>FM201600 VRB04KT P6SM VCFG SCT150<br>FM201900 23013G22KT P6SM BKN150<br>FM210100 27008KT P6SM OVC100</p>`, back: `NO` },
	
	{ front : `Do you require an alternate if your ETA is on the 8th at 1759?<p style="font-size: 24px; text-align: left; justify-content: center;  font-weight: bold">KBIL 081611Z 0816/0912 VRB05KT 1SM BR OVC002<br>TEMPO 0816/0818 1/4SM FZFG OVC002<br>FM081800 06008KT P6SM SCT010 BKN100<br>FM082300 06010KT P6SM VCSH FEW010 OVC070<br>FM090200 04012G18KT 4SM -SN BR OVC015<br>FM090400 04013KT 1SM -SN BR OVC008<br>FM091100 35010KT 4SM -SN BR OVC012</p>`, back: `YES` },
	{ front : `Do you require an alternate if your ETA is on the 9th at 0900?<p style="font-size: 24px; text-align: left; justify-content: center;  font-weight: bold">KBIL 081611Z 0816/0912 VRB05KT 1SM BR OVC002<br>TEMPO 0816/0818 1/4SM FZFG OVC002<br>FM081800 06008KT P6SM SCT010 BKN100<br>FM082300 06010KT P6SM VCSH FEW010 OVC070<br>FM090200 04012G18KT 4SM -SN BR OVC015<br>FM090400 04013KT 1SM -SN BR OVC008<br>FM091100 35010KT 4SM -SN BR OVC012</p>`, back: `YES` },
	{ front : `Do you require an alternate if your ETA is on the 9th at 0100?<p style="font-size: 24px; text-align: left; justify-content: center;  font-weight: bold">KBIL 081611Z 0816/0912 VRB05KT 1SM BR OVC002<br>TEMPO 0816/0818 1/4SM FZFG OVC002<br>FM081800 06008KT P6SM SCT010 BKN100<br>FM082300 06010KT P6SM VCSH FEW010 OVC070<br>FM090200 04012G18KT 4SM -SN BR OVC015<br>FM090400 04013KT 1SM -SN BR OVC008<br>FM091100 35010KT 4SM -SN BR OVC012</p>`, back: `YES` },
	{ front : `Do you require an alternate if your ETA is on the 8th at 1800?<p style="font-size: 24px; text-align: left; justify-content: center;  font-weight: bold">KBIL 081611Z 0816/0912 VRB05KT 1SM BR OVC002<br>TEMPO 0816/0818 1/4SM FZFG OVC002<br>FM081800 06008KT P6SM SCT010 BKN100<br>FM082300 06010KT P6SM VCSH FEW010 OVC070<br>FM090200 04012G18KT 4SM -SN BR OVC015<br>FM090400 04013KT 1SM -SN BR OVC008<br>FM091100 35010KT 4SM -SN BR OVC012</p>`, back: `YES` },
	{ front : `Do you require an alternate if your ETA is on the 8th at 1900?<p style="font-size: 24px; text-align: left; justify-content: center;  font-weight: bold">KBIL 081611Z 0816/0912 VRB05KT 1SM BR OVC002<br>TEMPO 0816/0818 1/4SM FZFG OVC002<br>FM081800 06008KT P6SM SCT010 BKN100<br>FM082300 06010KT P6SM VCSH FEW010 OVC070<br>FM090200 04012G18KT 4SM -SN BR OVC015<br>FM090400 04013KT 1SM -SN BR OVC008<br>FM091100 35010KT 4SM -SN BR OVC012</p>`, back: `NO` },
	
	{ front : `Do you require an alternate if your ETA is on the 17th at 1937?<p style="font-size: 24px; text-align: left; justify-content: center;  font-weight: bold">KPDX 171309Z 1712/1812 24005KT 6SM MIFG FEW0006 SCT250<br>FM1714000 VRB03KT P6SM BKN007 BKN035<br>FM171800 VRB04KT P6SM SCT035 BKN250<br>FM180500 VRB02KT P6SM SCT250</p>`, back: `NO` },
	{ front : `Do you require an alternate if your ETA is on the 17th at 2300?<p style="font-size: 24px; text-align: left; justify-content: center;  font-weight: bold">KPDX 171309Z 1712/1812 24005KT 6SM MIFG FEW0006 SCT250<br>FM1714000 VRB03KT P6SM BKN007 BKN035<br>FM171800 VRB04KT P6SM SCT035 BKN250<br>FM180500 VRB02KT P6SM SCT250</p>`, back: `NO` },
	{ front : `Do you require an alternate if your ETA is on the 18th at 0200?<p style="font-size: 24px; text-align: left; justify-content: center;  font-weight: bold">KPDX 171309Z 1712/1812 24005KT 6SM MIFG FEW0006 SCT250<br>FM1714000 VRB03KT P6SM BKN007 BKN035<br>FM171800 VRB04KT P6SM SCT035 BKN250<br>FM180500 VRB02KT P6SM SCT250</p>`, back: `NO` },
	{ front : `Do you require an alternate if your ETA is on the 17th at 1803?<p style="font-size: 24px; text-align: left; justify-content: center;  font-weight: bold">KPDX 171309Z 1712/1812 24005KT 6SM MIFG FEW0006 SCT250<br>FM1714000 VRB03KT P6SM BKN007 BKN035<br>FM171800 VRB04KT P6SM SCT035 BKN250<br>FM180500 VRB02KT P6SM SCT250</p>`, back: `YES` },
	{ front : `Do you require an alternate if your ETA is on the 17th at 1348?<p style="font-size: 24px; text-align: left; justify-content: center;  font-weight: bold">KPDX 171309Z 1712/1812 24005KT 6SM MIFG FEW0006 SCT250<br>FM1714000 VRB03KT P6SM BKN007 BKN035<br>FM171800 VRB04KT P6SM SCT035 BKN250<br>FM180500 VRB02KT P6SM SCT250</p>`, back: `YES` },
	
	{ front : `Do you require an alternate if your ETA is on the 18th at 0001?<p style="font-size: 24px; text-align: left; justify-content: center;  font-weight: bold">KCRP 171225Z 1712/1812 03008KT P6SM SCT015CB BKN250<br>TEMPO 1712/1715 VRB14G20KT 2SM -TSRA BR BKN005CB<br>FM171500 03014G20KT P6SM VCTS SCT025CB OVC250<br>TEMPO 1716/1718 3SM -TSRA BKN025CB<br>FM171800 0416G25KT P6SM VCTS BKN035CB OVC250<br>FM180000 03012KT P6SM VCSH BKN035 OVC100<br>FM180800 01015G25KT P6SM OVC100</p>`, back: `NO` },
	{ front : `Do you require an alternate if your ETA is on the 18th at 0703?<p style="font-size: 24px; text-align: left; justify-content: center;  font-weight: bold">KCRP 171225Z 1712/1812 03008KT P6SM SCT015CB BKN250<br>TEMPO 1712/1715 VRB14G20KT 2SM -TSRA BR BKN005CB<br>FM171500 03014G20KT P6SM VCTS SCT025CB OVC250<br>TEMPO 1716/1718 3SM -TSRA BKN025CB<br>FM171800 0416G25KT P6SM VCTS BKN035CB OVC250<br>FM180000 03012KT P6SM VCSH BKN035 OVC100<br>FM180800 01015G25KT P6SM OVC100</p>`, back: `NO` },
	{ front : `Do you require an alternate if your ETA is on the 17th at 1701?<p style="font-size: 24px; text-align: left; justify-content: center;  font-weight: bold">KCRP 171225Z 1712/1812 03008KT P6SM SCT015CB BKN250<br>TEMPO 1712/1715 VRB14G20KT 2SM -TSRA BR BKN005CB<br>FM171500 03014G20KT P6SM VCTS SCT025CB OVC250<br>TEMPO 1716/1718 3SM -TSRA BKN025CB<br>FM171800 0416G25KT P6SM VCTS BKN035CB OVC250<br>FM180000 03012KT P6SM VCSH BKN035 OVC100<br>FM180800 01015G25KT P6SM OVC100</p>`, back: `NO` },
	{ front : `Do you require an alternate if your ETA is on the 17th at 1500?<p style="font-size: 24px; text-align: left; justify-content: center;  font-weight: bold">KCRP 171225Z 1712/1812 03008KT P6SM SCT015CB BKN250<br>TEMPO 1712/1715 VRB14G20KT 2SM -TSRA BR BKN005CB<br>FM171500 03014G20KT P6SM VCTS SCT025CB OVC250<br>TEMPO 1716/1718 3SM -TSRA BKN025CB<br>FM171800 0416G25KT P6SM VCTS BKN035CB OVC250<br>FM180000 03012KT P6SM VCSH BKN035 OVC100<br>FM180800 01015G25KT P6SM OVC100</p>`, back: `YES` },
	{ front : `Do you require an alternate if your ETA is on the 17th at 1340?<p style="font-size: 24px; text-align: left; justify-content: center;  font-weight: bold">KCRP 171225Z 1712/1812 03008KT P6SM SCT015CB BKN250<br>TEMPO 1712/1715 VRB14G20KT 2SM -TSRA BR BKN005CB<br>FM171500 03014G20KT P6SM VCTS SCT025CB OVC250<br>TEMPO 1716/1718 3SM -TSRA BKN025CB<br>FM171800 0416G25KT P6SM VCTS BKN035CB OVC250<br>FM180000 03012KT P6SM VCSH BKN035 OVC100<br>FM180800 01015G25KT P6SM OVC100</p>`, back: `YES` },
	{ front : `Do you require an alternate if your ETA is on the 18th at 1014?<p style="font-size: 24px; text-align: left; justify-content: center;  font-weight: bold">KCRP 171225Z 1712/1812 03008KT P6SM SCT015CB BKN250<br>TEMPO 1712/1715 VRB14G20KT 2SM -TSRA BR BKN005CB<br>FM171500 03014G20KT P6SM VCTS SCT025CB OVC250<br>TEMPO 1716/1718 3SM -TSRA BKN025CB<br>FM171800 0416G25KT P6SM VCTS BKN035CB OVC250<br>FM180000 03012KT P6SM VCSH BKN035 OVC100<br>FM180800 01015G25KT P6SM OVC100</p>`, back: `NO` },
	{ front : `Do you require an alternate if your ETA is on the 17th at 1605?<p style="font-size: 24px; text-align: left; justify-content: center;  font-weight: bold">KCRP 171225Z 1712/1812 03008KT P6SM SCT015CB BKN250<br>TEMPO 1712/1715 VRB14G20KT 2SM -TSRA BR BKN005CB<br>FM171500 03014G20KT P6SM VCTS SCT025CB OVC250<br>TEMPO 1716/1718 3SM -TSRA BKN025CB<br>FM171800 0416G25KT P6SM VCTS BKN035CB OVC250<br>FM180000 03012KT P6SM VCSH BKN035 OVC100<br>FM180800 01015G25KT P6SM OVC100</p>`, back: `NO` },
	{ front : `Do you require an alternate if your ETA is on the 17th at 1847?<p style="font-size: 24px; text-align: left; justify-content: center;  font-weight: bold">KCRP 171225Z 1712/1812 03008KT P6SM SCT015CB BKN250<br>TEMPO 1712/1715 VRB14G20KT 2SM -TSRA BR BKN005CB<br>FM171500 03014G20KT P6SM VCTS SCT025CB OVC250<br>TEMPO 1716/1718 3SM -TSRA BKN025CB<br>FM171800 0416G25KT P6SM VCTS BKN035CB OVC250<br>FM180000 03012KT P6SM VCSH BKN035 OVC100<br>FM180800 01015G25KT P6SM OVC100</p>`, back: `NO` },
	

];